{
  "type": "FeatureCollection",
  "features": [
    {
      "type": "Feature",
      "properties": {
        "norad_id": 66598,
        "name": "STARLINK-35981",
        "group": "last-30-days",
        "lat": -15.622414274290602,
        "lon": 27.72464944266683,
        "alt_km": 416.24442331925184,
        "timestamp": "2025-12-13T03:42:10.037213+00:00",
        "meta_object_name": "STARLINK-35981",
        "meta_object_id": "2025-270L",
        "meta_epoch": "2025-12-12T06:00:00.999648",
        "meta_mean_motion": 15.50542821,
        "meta_eccentricity": 0.0001701,
        "meta_inclination": 42.9999,
        "meta_ra_of_asc_node": 195.5527,
        "meta_arg_of_pericenter": 268.4236,
        "meta_mean_anomaly": 281.0866,
        "meta_ephemeris_type": 0,
        "meta_classification_type": "U",
        "meta_norad_cat_id": 66598,
        "meta_element_set_no": 999,
        "meta_rev_at_epoch": 416,
        "meta_bstar": 0.00025192524,
        "meta_mean_motion_dot": 0.00014446,
        "meta_mean_motion_ddot": 0,
        "tle_line1": "1 66598U 25270L   25346.25001157  .00014446  00000+0  25193-3 0  9992",
        "tle_line2": "2 66598  42.9999 195.5527 0001701 268.4236 281.0866 15.50542821  4167"
      },
      "geometry": {
        "type": "Point",
        "coordinates": [
          27.72464944266683,
          -15.622414274290602
        ]
      }
    },
    {
      "type": "Feature",
      "properties": {
        "norad_id": 66599,
        "name": "STARLINK-35930",
        "group": "last-30-days",
        "lat": -16.869660991878906,
        "lon": 29.249652491227916,
        "alt_km": 416.86408791476424,
        "timestamp": "2025-12-13T03:42:10.037223+00:00",
        "meta_object_name": "STARLINK-35930",
        "meta_object_id": "2025-270M",
        "meta_epoch": "2025-12-12T06:00:00.999648",
        "meta_mean_motion": 15.50607674,
        "meta_eccentricity": 3.887e-05,
        "meta_inclination": 42.9997,
        "meta_ra_of_asc_node": 195.5489,
        "meta_arg_of_pericenter": 320.7074,
        "meta_mean_anomaly": 230.6045,
        "meta_ephemeris_type": 0,
        "meta_classification_type": "U",
        "meta_norad_cat_id": 66599,
        "meta_element_set_no": 999,
        "meta_rev_at_epoch": 432,
        "meta_bstar": -0.00032987272,
        "meta_mean_motion_dot": -0.00019663,
        "meta_mean_motion_ddot": 0,
        "tle_line1": "1 66599U 25270M   25346.25001157 -.00019663  00000+0 -32987-3 0  9990",
        "tle_line2": "2 66599  42.9997 195.5489 0000388 320.7074 230.6045 15.50607674  4320"
      },
      "geometry": {
        "type": "Point",
        "coordinates": [
          29.249652491227916,
          -16.869660991878906
        ]
      }
    },
    {
      "type": "Feature",
      "properties": {
        "norad_id": 66600,
        "name": "STARLINK-35980",
        "group": "last-30-days",
        "lat": -18.094510149575232,
        "lon": 30.77977785400487,
        "alt_km": 416.367141048986,
        "timestamp": "2025-12-13T03:42:10.037235+00:00",
        "meta_object_name": "STARLINK-35980",
        "meta_object_id": "2025-270N",
        "meta_epoch": "2025-12-12T06:00:00.999648",
        "meta_mean_motion": 15.50563396,
        "meta_eccentricity": 0.00023767,
        "meta_inclination": 42.9999,
        "meta_ra_of_asc_node": 195.5437,
        "meta_arg_of_pericenter": 275.7381,
        "meta_mean_anomaly": 277.5533,
        "meta_ephemeris_type": 0,
        "meta_classification_type": "U",
        "meta_norad_cat_id": 66600,
        "meta_element_set_no": 999,
        "meta_rev_at_epoch": 422,
        "meta_bstar": 0.00023387283,
        "meta_mean_motion_dot": 0.00013395,
        "meta_mean_motion_ddot": 0,
        "tle_line1": "1 66600U 25270N   25346.25001157  .00013395  00000+0  23387-3 0  9991",
        "tle_line2": "2 66600  42.9999 195.5437 0002376 275.7381 277.5533 15.50563396  4220"
      },
      "geometry": {
        "type": "Point",
        "coordinates": [
          30.77977785400487,
          -18.094510149575232
        ]
      }
    },
    {
      "type": "Feature",
      "properties": {
        "norad_id": 66601,
        "name": "STARLINK-35978",
        "group": "last-30-days",
        "lat": -19.220135831147427,
        "lon": 32.219084599974096,
        "alt_km": 417.18077777489725,
        "timestamp": "2025-12-13T03:42:10.037246+00:00",
        "meta_object_name": "STARLINK-35978",
        "meta_object_id": "2025-270P",
        "meta_epoch": "2025-12-12T06:00:00.999648",
        "meta_mean_motion": 15.50624602,
        "meta_eccentricity": 0.00012809,
        "meta_inclination": 42.9999,
        "meta_ra_of_asc_node": 195.5387,
        "meta_arg_of_pericenter": 281.6377,
        "meta_mean_anomaly": 273.5704,
        "meta_ephemeris_type": 0,
        "meta_classification_type": "U",
        "meta_norad_cat_id": 66601,
        "meta_element_set_no": 999,
        "meta_rev_at_epoch": 416,
        "meta_bstar": -0.0018194629,
        "meta_mean_motion_dot": -0.0010582,
        "meta_mean_motion_ddot": 0,
        "tle_line1": "1 66601U 25270P   25346.25001157 -.00105820  00000+0 -18195-2 0  9999",
        "tle_line2": "2 66601  42.9999 195.5387 0001280 281.6377 273.5704 15.50624602  4166"
      },
      "geometry": {
        "type": "Point",
        "coordinates": [
          32.219084599974096,
          -19.220135831147427
        ]
      }
    },
    {
      "type": "Feature",
      "properties": {
        "norad_id": 66602,
        "name": "STARLINK-36050",
        "group": "last-30-days",
        "lat": -6.299987630473951,
        "lon": 17.101250075245716,
        "alt_km": 436.5967144507704,
        "timestamp": "2025-12-13T03:42:10.037256+00:00",
        "meta_object_name": "STARLINK-36050",
        "meta_object_id": "2025-270Q",
        "meta_epoch": "2025-12-12T06:00:00.999648",
        "meta_mean_motion": 15.47306382,
        "meta_eccentricity": 0.00013369,
        "meta_inclination": 43.0001,
        "meta_ra_of_asc_node": 195.5447,
        "meta_arg_of_pericenter": 261.5299,
        "meta_mean_anomaly": 291.2516,
        "meta_ephemeris_type": 0,
        "meta_classification_type": "U",
        "meta_norad_cat_id": 66602,
        "meta_element_set_no": 999,
        "meta_rev_at_epoch": 422,
        "meta_bstar": -0.0452862,
        "meta_mean_motion_dot": -0.02100143,
        "meta_mean_motion_ddot": 0,
        "tle_line1": "1 66602U 25270Q   25346.25001157 -.02100143  00000+0 -45286-1 0  9995",
        "tle_line2": "2 66602  43.0001 195.5447 0001336 261.5299 291.2516 15.47306382  4225"
      },
      "geometry": {
        "type": "Point",
        "coordinates": [
          17.101250075245716,
          -6.299987630473951
        ]
      }
    },
    {
      "type": "Feature",
      "properties": {
        "norad_id": 66603,
        "name": "STARLINK-36048",
        "group": "last-30-days",
        "lat": -21.7016332689158,
        "lon": 35.52131243780885,
        "alt_km": 416.42763114405716,
        "timestamp": "2025-12-13T03:42:10.037268+00:00",
        "meta_object_name": "STARLINK-36048",
        "meta_object_id": "2025-270R",
        "meta_epoch": "2025-12-12T06:00:00.999648",
        "meta_mean_motion": 15.50517168,
        "meta_eccentricity": 0.00017226,
        "meta_inclination": 42.9999,
        "meta_ra_of_asc_node": 195.5287,
        "meta_arg_of_pericenter": 263.0052,
        "meta_mean_anomaly": 296.0828,
        "meta_ephemeris_type": 0,
        "meta_classification_type": "U",
        "meta_norad_cat_id": 66603,
        "meta_element_set_no": 999,
        "meta_rev_at_epoch": 422,
        "meta_bstar": 0.00077329921,
        "meta_mean_motion_dot": 0.00045187,
        "meta_mean_motion_ddot": 0,
        "tle_line1": "1 66603U 25270R   25346.25001157  .00045187  00000+0  77330-3 0  9995",
        "tle_line2": "2 66603  42.9999 195.5287 0001722 263.0052 296.0828 15.50517168  4224"
      },
      "geometry": {
        "type": "Point",
        "coordinates": [
          35.52131243780885,
          -21.7016332689158
        ]
      }
    },
    {
      "type": "Feature",
      "properties": {
        "norad_id": 66604,
        "name": "STARLINK-35977",
        "group": "last-30-days",
        "lat": -22.819013691293048,
        "lon": 37.075404229607955,
        "alt_km": 417.0291106431214,
        "timestamp": "2025-12-13T03:42:10.037289+00:00",
        "meta_object_name": "STARLINK-35977",
        "meta_object_id": "2025-270S",
        "meta_epoch": "2025-12-12T06:00:00.999648",
        "meta_mean_motion": 15.50553835,
        "meta_eccentricity": 0.00014546,
        "meta_inclination": 42.9998,
        "meta_ra_of_asc_node": 195.5238,
        "meta_arg_of_pericenter": 271.0032,
        "meta_mean_anomaly": 290.0321,
        "meta_ephemeris_type": 0,
        "meta_classification_type": "U",
        "meta_norad_cat_id": 66604,
        "meta_element_set_no": 999,
        "meta_rev_at_epoch": 432,
        "meta_bstar": -0.00062861227,
        "meta_mean_motion_dot": -0.00037012,
        "meta_mean_motion_ddot": 0,
        "tle_line1": "1 66604U 25270S   25346.25001157 -.00037012  00000+0 -62861-3 0  9999",
        "tle_line2": "2 66604  42.9998 195.5238 0001454 271.0032 290.0321 15.50553835  4323"
      },
      "geometry": {
        "type": "Point",
        "coordinates": [
          37.075404229607955,
          -22.819013691293048
        ]
      }
    }
  ]
}